GLOBALSTAR M067         
1 32263U 07048A   24205.57015532 -.00000027  00000+0  52326-3 0  9996
2 32263  51.9727 277.4797 0000608  33.5429 105.5789 12.40650265768931
GLOBALSTAR M070         
1 32264U 07048B   24205.31927782 -.00000064  00000+0  22441-3 0  9994
2 32264  51.9760  50.3517 0001131  81.8109  89.2833 12.62296296773118
GLOBALSTAR M066         
1 32265U 07048C   24204.58126132 -.00000081  00000+0  12885-3 0  9993
2 32265  51.9675 274.6831 0001817 183.4425 325.0969 12.58438269775245
GLOBALSTAR M068         
1 32266U 07048D   24205.20751580 -.00000084  00000+0  10803-3 0  9996
2 32266  51.9859 225.0750 0001028 138.6107 297.6905 12.62794803776286
GLOBALSTAR M079         
1 37188U 10054A   24205.02783307 -.00000087  00000+0  92744-4 0  9995
2 37188  52.0046  61.7994 0000612  57.6407  89.5835 12.62261812635564
GLOBALSTAR M074         
1 37189U 10054B   24205.37641365 -.00000081  00000+0  12835-3 0  9997
2 37189  52.0024  60.1126 0000833  71.3282 100.0386 12.62270626635608
GLOBALSTAR M076         
1 37190U 10054C   24205.08508517 -.00000070  00000+0  18889-3 0  9991
2 37190  52.0036  61.1408 0000942  46.2847 120.5343 12.62253913635572
GLOBALSTAR M077         
1 37191U 10054D   24204.91148442 -.00000102  00000+0  92008-5 0  9993
2 37191  52.0088  18.4298 0000895  89.0231  68.9029 12.62261404635560
